place_id,p_nameTH,p_nameEN,p_type,lat,long,x (easting),y (northing),web,tel,description
1,ฟอลอินเค้ก,fall in C•A•K•E ,ร้านอาหารและคาเฟ่,18.7659248,98.9897888,498923.8,2074927.93,https://www.facebook.com/fallincakecm,"081-024-8119, 053-283-421",คาเฟ่สุดชิคสไตล์ Minimal โทนอุ่นๆด้วยการตกแต่งร้านเน้นความโปร่งโล่งสบาย ให้ความรู้สึกไม่อึดอัดด้วยโทนสีหลักแบบ Pastel แถมมีมุมถ่ายภาพสวยๆ และเมนูของทางร้านมีให้เลือกมากมาย ทั้งเครื่องดื่มร้อน เย็น ขนม ของหวาน อาหารจานหลัก และที่พิเศษสุดเมนูเค้ก  และขนมปัง ที่หลากหลาย
2,ภูฟิน ดอย,Phufinn Doi,ร้านอาหารและคาเฟ่,18.6955043,98.8779288,487128.84,2067140.59,https://www.facebook.com/phufinn/,"092-9590399, 080-2209660","คาเฟ่บนหุบเขา ท่ามกลางวิวธรรมชาติไม่ไกลเมืองขับรถจากตัวเมือง 15 นาที ลูกค้าได้มานั่งเล่นรับลมเย็นและกลิ่นไอของธรรมชาติรอบตัว มีทั้งที่นั่ง outdoor ชมวิวเมืองเชียงใหม่ลำพูน และที่นั่ง indoor ห้องแอร์เย็นๆ  ไปเติมพลังธรรมชาติ พร้อมมุมถ่ายรูปที่เป็นไฮไลท์คือบันได Touch the sky, มุมรังนก และมุมเก้าอี้ ทางร้านมีบริการขนม เครื่องดื่ม กาแฟ และอาหารหลากหลายเมนู"
3,เก้าคาเฟ่,Gao café,ร้านอาหารและคาเฟ่,18.7980802,98.9676801,496594.24,2078486,https://www.facebook.com/gaocafenimman,"093-5565255, 089-8848443","คาเฟ่สไตล์ไทย ผสมกับล้านนาสมัยใหม่ ที่มีจุดเริ่มต้นมาจาก ร้าน9สภาชาแฟ ที่ขึ้นชื่อในเรื่องขนม, เครื่องดื่ม, อาหารสไตล์ล้านนา ทั้งสภาเบรคฟาสต์ สภาปังหลุม  ข้าวต้มแห้งเจียงใหม่ ปูอ่อง ข้าวซอย  และเครื่องดื่ม ขนมอร่อยๆ เช่น ลาเต้ตุ๊บตับ อเมริกาโน่น้ำตาลสด โมจิข้าวหนุกงา และอื่นๆ ร้านนี้ถือว่าเป็นแลนมาร์คแห่งนิมมานเชียงใหม่ด้วยการดีไซน์ร้านด้วยโดมไม้ไผ่สานและการแต่งร้านและตกแต่งอาหารอย่างละเมียดละไม และอาหารขนมเครื่องดื่มก็มีเอกลักษณ์เฉพาะตัว"
4,ภูฟินอินเดอะเลค,Phufinn in the Lake,ร้านอาหารและคาเฟ่,18.7328124,98.9721188,497060.88,2071264.34,https://www.facebook.com/phufinn/,"093-1511041, 063-0698789","คาเฟ่ริมน้ำกับบรรยากาศริมชายหาด จำลองทะเลเชียงใหม่ในธีม Be Happy สีเหลือง  กับขนม เครื่องดื่มกาแฟ หลากหลายทั้งSmile Americano, Smile Latte, Peach Lemonade, Jerry Cheesecakeและยังมีบริการอาหารมากมายทั้งไทยจีนฝรั่ง  สามารถเลือกนั่งเล่นได้ทุกมุม พร้อมมุมถ่ายรูปใหม่ ที่มาพร้อมกับตู้ขายน้ำริมหาดคันเล็กสีเหลือง "
5,ผลิ ,Phli ,ร้านอาหารและคาเฟ่,18.8522308,99.043674,504600.73,2084477.83,https://www.facebook.com/phlicafe/,063 669 0955,คาเฟ่น่ารักย่านสันทราย ตกแต่งสไตล์เกาหลี ที่นำบ้านเก่ามารีโนเวทใหม่ กลายเป็นร้านสุดโฮมมี่แสนอบอุ่น  มี จุดเด่น คือ ประตูสีเขียว ตัดกับตัวร้านสีขาวและบ้านไม้ ภายในร้านใช้โทนสีขาว ประดับด้วยของตกแต่ง ทั้งภาพวาด ดอกไม้ ตัดด้วยเฟอร์นิเจอร์วินเทจและชุดโต๊ะเก้าอี้ไม้สีเข้ม มีมุมไฮไลท์ คือ ที่นั่งริมกระจกที่สามารถมองเห็นวิวภายนอกร้าน เมนูอาหารมีทั้งอาหารคาว เมนูเด่น คือ ข้าวซอยสูตรจีนฮ่อ จากร้านข้าวซอยเส้นนวลอันโด่งดังในย่านนิมมานเมื่อ 10 ปีก่อน มีทั้งเครื่องดื่ม และเบเกอรี่ต่างๆ
6,ทะเมโทซีเอ็นเอกซ์,Tomato cnx,ร้านอาหารและคาเฟ่,18.7870474,99.0081534,500859.19,2077264.96,https://www.facebook.com/tomato.cnx/,099 037 4242,คาเฟ่กาแฟสไตล์โมเดิร์นลอฟท์มีจุดเด่นที่สไตล์การแต่งร้าน ด้วยการจัดวางเฟอร์นิเจอร์ในมุมต่างๆได้แบบลงตัว มีมุมแปลกตาอย่างต้นไม้ใหญ่กลางร้าน กลายเป็นมุมสายรูป ข้างในสุดของร้านตกแต่งได้ความเก่านิดๆ เผยให้เห็นลวดลายกำแพงอิฐ แถมยังครีเอทเครื่องดื่มทั้งหน้าตา สีสัน ชวนให้ลิ้มลอง และยังรสชาติดีมากอีกด้วย
7,คีพอินทัช,keep in touch,ร้านอาหารและคาเฟ่,18.8400077,98.9806554,497962,2083124.95,https://www.facebook.com/keepintouchchiangmai/,089 999 0509,คาเฟ่ที่ตกแต่งในสไตล์ Rustic Home ใช้เฟอร์นิเจอร์เก่าแบบคลาสสิค  นอกจากนี้ยังมีโซนของ Garden House แบบเรือนกระจกผสมกับผนังอิฐแบบลอฟต์  ที่ถูกออกแบบมาเพื่อจัดวางต้นไม้และดอกไม้ รวมถึงต้นกระบองเพชร เป็นความเขียวขจีสดชื่นที่ผสมผสานกันได้แบบลงตัว เมนูอาหารมีทั้ง อาหารยุโรป อาหารไทย ของหวาน และเครื่องดื่มต่างๆ เมนูแนะนำ  อัญชันน้ำผึ้งมะนาว คีพอินทัชเอ็กเบเนดิก เสิร์ฟพร้อมกับปลาแซลมอลรมควัน ขนมชูครีมกับไอศกรีมรสเบอร์รี่  กุหลาบโฮมเมดวาฟเฟิลเสิร์ฟพร้อมกับผลไม้รวมตามฤดูกาลและไอศกรีมวนิลลา
8,เนเจอร์ทอร์ค,NatureTalk,ร้านอาหารและคาเฟ่,18.8880994,98.9782028,497704.34,2088446.07,https://www.facebook.com/Naturetalkthailand/,091 447 5348,คาเฟ่บ้านดินเชียงใหม่ในโซนแม่ริม เชียงใหม่ โดดเด่นด้วยอาคารที่ออกแบบเหมือนหมูบ้านยุโรป มีมุมถ่ายรูปน่ารักมากมาย  ทั้งภายในร้านที่ตกแต่งแบบยุโรปพร้อมมุมถ่ายภาพไฮไลท์ บ้านดินริมน้ำ มีดอกไม้แห้งประดับมากมาย เมนูมีทั้งอาหาเครื่องดื่ม ชา กาแฟ ขนมเค้กต่างๆ 
9,เดอะบารีสโทร แอท ปิงริเวอร์,The Baristro at Ping river,ร้านอาหารและคาเฟ่,18.81582,99.00025,500026.34,2080448.54,https://www.facebook.com/thebaristroatpingriver/,081 883 7402,ร้านกาแฟสไตล์มินิมอลที่ตั้งอยู่ริมแม่น้ำปิง ที่ดัดแปลงบ้านเก่าให้เป็นร้านกาแฟสุดชิค โดยตึกด้านนอกยังใช้โครงสร้างเดิม แต่ด้านในตกแต่งใหม่หมด เน้นใช้โทนสีเทาขาวให้ความรู้สึกอบอุ่น  ร้านกว้างขวางโซนที่นั่งมีให้เลือกหลากหลายทั้ง indoor & outdoor โดยเฉพาะโซนที่เป็นไฮไลท์เทอเรสที่ยื่นออกไปริมน้ำพร้อมเก้าอี้นั่ง
10,เดอะบารีสโทร แอท เทรนสเตชั่น,THE BARISTRO AT TRAIN STATION  ,ร้านอาหารและคาเฟ่,18.7821506,99.0162955,501717.27,2076723.3,https://www.facebook.com/thebaristroattrainstation/,065 354 1963,ร้านคาเฟ่ใกล้สถานีรถไฟเชียงใหม่ ตกแต่งสไตล์ลอฟท์ อิงคอนเซปต์รถไฟพร้อมเสริ์ฟเครื่องดื่ม เบอเกอรี่ รสชาติดี 
11,ทรานซิสนัมเบอร์เอท,Transit No.8 ,ร้านอาหารและคาเฟ่,18.7871157,98.9602837,495814.61,2077273.04,https://www.facebook.com/transitnumber8/,062 592 4259,คาเฟ่เชียงใหม่ฮิตสุดในไอจีที่เหล่าบรรดาเซเลปดารานิยมไปเช็คอิน กับคาเฟ่ในสไตล์มินิมอล กับมุมถ่ายภาพทางม้าลาย ที่ข้ามระหว่าง 2 บ้าน คือ  โซนฝั่งสโลว์บาร์ กับ โซนร้านกาแฟ ซึ่งตั้งอยู่คนละฝั่ง บรรยากาศร้านออกแบบตามชื่อร้านคล้ายเป็นจุด transit เน้นสีขาว แสงและเงาของการถ่ายรูป 
12,เยลโลคัพ,Yellow cup,ร้านอาหารและคาเฟ่,18.7439219,99.0740063,507800.96,2072495,https://www.facebook.com/%EF%B8%8FYellow-cup-113047243805780/?ref=page_internal,083 - 5711915,คาเฟ่ที่คุมโทนสีเหลืองพาสเทลทั้งร้าน กับการตกแต่งแบบมินิมอลสไตล์ ทางร้านได้จัดมุมไว้ให้เราถ่ายรูปกันหลายมุม อีกทั้งยังมีที่นั่งแบบอินดอร์ และเอาท์ดอร์ให้ลูกค้าเลือกได้ตามใจชอบ มีขนมหวาน เช่น บราวนี่ คุกกี้ช็อกโกแลตหนึบ ๆ ลองทานคู่กับชากุหลาบน้ำผึ้งมะนาวเมนูซิกเนเจอร์ของร้านเป็นการเติมเต็มช่วงเวลาแห่งความสุขได้อย่างเต็มที่ 
13,เอเวอร์กรีนคาเฟ่แอนด์โฮเทล,EVERGREEN.Cafe.Hotel,ร้านอาหารและคาเฟ่,18.7860784,98.9705143,496892.66,2077157.98,https://www.facebook.com/evergreen.cafe.hotel/,090 051 0007,คาเฟ่สายมินิมอลที่เน้นการตกแต่งบรรยากาศเรียบง่ายแบบ Minimal Modern จากรูปแบบของประตูหน้าต่างที่มีความโค้งเว้า และเมนูแนะนำต้องเป็นเครื่องดื่มอย่างกาแฟ เพราะทางร้านได้นำเข้าเมล็ดกาแฟถึง 3 สัญชาติอย่าง ไทย บราซิล และเอธิโอเปีย ผ่านการคั่วบดด้วยเคล็ดลับเฉพาะ  คอกาแฟนที่มาร้านนี้การันตีว่าดีจริงต้องมาลอง
14,แมทชาพเพน,Matchappen,ร้านอาหารและคาเฟ่,18.8360397,99.0076069,500801.42,2082685.82,https://www.facebook.com/matchappen/,092 580 1377,คาเฟ่ที่เอาใจสายมัจฉะ การตกแต่งภายในยังคงวิถีแบบมินิมอลสไตล์ที่คุมโทนสีขาวสว่าง จัดสรรเนื้อที่ให้ดูปรอดโปร่งโล่งสบาย และใช้เฟอร์นิเจอร์ไม้ทั้งหมด หรือใครชอบเสพบรรยากาศก็สามารถมานั่งดูพนักงานชงชากันที่บาร์ได้ เมนูของร้าน เน้นชาเขียวซึ่งพิถีพิถันในการชงมาก ๆ และจะแบ่งชาเขียวออกเป็น 4 เกรด เรียกว่าขนเอาชารสชาติดีมาให้ลูกค้าได้ลิ้มลองแบบที่ไม่ต้องไปไกลถึงญี่ปุ่นเลย 
15,แม็กซ์ คอฟฟี่,max coffee,ร้านอาหารและคาเฟ่,18.7460643,98.9546564,495220.36,2072730.99,https://www.facebook.com/MAXCoffee.cm/,098 510 3010,คาเฟ่สไตล์ลอฟท์แบบปูนเปลือยให้ความดิบแบบเท่ๆ ตัวร้านเน้นใช้สีเทาดำเป็นหลัก เริ่มตั้งแต่ทางเข้าร้านที่มีการใช้เศษปูนมาวางกองเรียงกันจนทำให้เข้าใจว่าร้านยังสร้างไม่เสร็จแต่นั่นเป็นสไตล์การตกแต่งที่เน้นความดิบจริงๆ เมื่อเดินเข้ามาในร้านเป็นแบบโปร่งโล่ง ไฮไลท์ คือ นุมนั่งสโลปพร้อมหมอนอิงวางไล่ระดับกันแบบเก๋ๆ ในส่วนเมนูของทางร้านมีทั้งกาแฟ สโลว์บาร์ และเมนูเบรคฟาสต์
16,อันดูสตูดิโอ,Undo studio,ร้านอาหารและคาเฟ่,18.7626281,98.998022,499791.52,2074563.1,https://www.facebook.com/Undostudio-106407727604838,065 478 8974,ร้านสไตล์มินิมอลแบบ Japan Style บนดาดฟ้าตึก พิกัดของร้านนั้นตั้งอยู่บนดาดฟ้าของโกดังสินค้าขนาดใหญ่ เมื่อเดินขึ้นมาแล้วจะพบกับตัวร้านที่ทำจากไม้ทั้งหลังล้อมด้วยกระจกใส เป็นคาเฟ่ไซส์มินิที่ดูภาพรวมแล้วน่ารักเหมือนหลุดออกมาจากในการ์ตูน ในส่วนของเมนูมีให้เลือกทั้งชา กาแฟ โกโก้ และขนมเค้ก
17,โคโค คอร์นเนอร์ โคโคนัท,Coco corner coconut,ร้านอาหารและคาเฟ่,18.7965127,98.9686473,496696.11,2078312.6,https://www.facebook.com/cococornercoconut/,063 672 2759,คาเฟ่ในย่านนิมมานฯ ที่ได้รับความนิยมทั้งคนไทย และคนต่างชาติ โดยเฉพาะใครที่ชอบทานมะพร้าวร้านนี้ขึ้นชื่อมาก ๆ เพราะเมนูส่วนใหญ่นั้นทำจากมะพร้าวเกือบทั้งหมด อย่างเมนูซิกเนเจอร์ คือ น้ำมะพร้าวปั่น ไอศกรีมมะพร้าว ซอฟเสิร์ฟมะพร้าว เค้กมะพร้าว และพุดดิ้งมะพร้าว 100% ในส่วนของการตกแต่งร้านจะออกมาในแนวลอฟท์สไตล์ เน้นใช้วัสดุจากไม้ จากปูนเป็นหลัก เครื่องใช้เป็นแบบไม้สาน บวกกับโทนสีขาวของร้านดูสะอาดตามาก ๆ ถ่ายรูปออกมาแล้วดูดี ให้บรรยากาศเหมือนร้านริมชายหาดเลย 
18,เกรนคาเฟ่ซีเอ็นเอกซ์,Graincafe.cnx,ร้านอาหารและคาเฟ่,18.7725897,98.951858,494926.22,2075666.03,https://www.facebook.com/graincafecnx/,095 448 2333,คาเฟ่สาย Healthy เพราะร้านนี้ทุกเมนูเน้นตอบโจทย์คนรักสุขภาพ ไม่ว่าจะเครื่องดื่ม หรือขนมหวานก็ใส่ใจเรื่องปริมาณน้ำตาลและส่วมผสม อย่างซิกเนเจอร์ของร้าน คือ Grain on the ground เป็นการปั่นกาแฟกับมะพร้าวสดเพื่อลดการใช้นมลง หรือเมนูขนมเค้กของทางร้านที่จะใช้ธัญพืชเป็นส่วนประกอบหลัก นอกจากนี้ทางร้านยังมีมุมสวย ๆ ให้ถ่ายรูปอีกเยอะ ด้วยการออกแบบของตัวร้านที่มีรูปทรงแปลกตา เป็นคลื่น ๆ บวกกับหน้าต่างประตูที่ดูมีรูปมีทรงเก๋ๆ ทำให้ถ่ายภาพออกมาแล้วให้อารมณ์คูล ๆ 
19,แฟลตคาเฟ่,Flat Cafe,ร้านอาหารและคาเฟ่,18.7858797,98.9648589,496296.71,2077136.18,https://www.facebook.com/flatcafecnx,09-2650-6707,คาเฟ่สไตล์มินิมอล ด้วยการตกแต่งของร้านที่ดูเรียบง่าย สบายตา เฟอร์นิเจอร์ก็ให้ฟีลวินเทจเบาๆ สำหรับเมนูเครื่องดื่มและขนม ก็มีให้เลือกมากมาย แต่ไฮไลท์คือ เมนูเบเกอรี่ รสชาติอร่อย
20,บิกุริ, Biguri ,ร้านอาหารและคาเฟ่,18.814021,98.9841976,498335,2080249.57,https://www.facebook.com/biguridonut/,098 329 7673,ร้านเบเกอรี่สไตล์ญี่ปุ่นแบบมินิมอล ด้วยตัวร้านบรรยากาศน่ารักอบอุ่น และโดนัทก็รสชาติดี อร่อยถูกใจ แป้งนุ่ม ให้ฟีลเหมือนนั่งกินขนมอยู่ที่สวนหลังบ้านในญี่ปุ่นจริงๆ ได้กาแฟหอมๆทานคู่กันแล้วอร่อยมาก
21,หีบ,Heap,ร้านอาหารและคาเฟ่,18.7883297,98.9953381,499508.71,2077406.91,https://www.facebook.com/Heap-Chiangmai-105775788048888/,06-1152-5151,คาเฟ่สีขาว-เขียว ชื่อที่แปลกไม่เหมือนใครจากคำว่า หีบ ซึ่งเป็นภาษาเหนือ แปลว่า ซด ด้วยบรรยากาศร้านสุดน่ารัก น่าถ่ายรูป เมนูของที่นี่มีทั้งกาแฟ Non-Coffee และเบเกอรี่
22,เซลฟ์คอฟฟี่,SELF Coffee,ร้านอาหารและคาเฟ่,18.7870472,98.9993986,499936.66,2077264.94,https://www.facebook.com/selfcoffeechiangmai/,08-7198-6779,คาเฟ่สไตล์มินิมอลผสมกับวินเทจ ทำให้ออกมาดูลงตัว แถมเครื่องดื่มของที่นี่ก็รสชาติดี มีให้เลือกหลากหลายเมนู เป็นอีกหนึ่งร้านในเชียงใหม่ที่ควรค่าแก่การมา Hopping 
23,โฮม,Home’s,ร้านอาหารและคาเฟ่,18.7864902,99.0460032,504847.95,2077203.94,https://www.facebook.com/homes.26.9/,06-4515-6269,คาเฟ่ที่ตกแต่งสไตล์ Santorini ผสมความมินิมอลแบบคลีนๆ ตัวร้านแบ่งออกเป็นสองชั้น ชั้นแรกเป็น shop ส่วนชั้น 2 เป็นโซนของร้านกาแฟ ร้านตกแต่งโทนขาวน้ำตาล บรรยากาศสบายๆ โฮมมี่สุดๆ แถมยังมีชั้นดาดฟ้า
24,บรรยากาศ,Banyakat ,ร้านอาหารและคาเฟ่,18.9274483,98.8222838,481287.29,2092809.18,https://www.facebook.com/banyakat/,06-6115-2124,คาเฟที่จบครบทุกความชิล เพราะเป็นทั้งคาเฟ่และที่พัก โลเคชั่นดีตั้งอยู่ท่ามกลางธรรมชาติอันสดชื่นบนม่อนเเจ่ม บรรยากาศน่ามาพักผ่อน พร้อมกับสูดลมหายใจได้อย่างเต็มปอด ตัวร้านก็ยังมีความมินิมอลฟีลญี่ปุ่นๆ มีหมอกบางๆ
25,ชอบคัพคาเฟ่,Chxb Cup Cafe,ร้านอาหารและคาเฟ่,18.8341113,99.0013864,500146.02,2082472.36,https://www.facebook.com/Chxb-Cup-Cafe-%E0%B8%8A%E0%B8%AD%E0%B8%9A-%E0%B8%84%E0%B8%B1%E0%B8%9E-%E0%B8%84%E0%B8%B2%E0%B9%80%E0%B8%9F%E0%B9%88-1060472287675072/,06-1224-2823,คาเฟ่สไตล์มินิมอล โทนสีขาวตกแต่งให้เหมือนอยู่เกาหลี แถมเครื่องดื่มก็ถูกใจคอกาแฟ หอมเข้มข้ม 
26,ช.ศรีนวล คาเฟ่,ch.srinual cafe,ร้านอาหารและคาเฟ่,18.7512999,99.1231757,512983.41,2073314.2,https://www.facebook.com/chsrinual.cafe/,080 557 4111,ร้านกาแฟสไตล์มินิมอลฟีลญี่ปุ่นนิดๆ ด้วยการตกแต่งโทนสีขาวน้ำตาลที่ผสมผสานกับบ้านไม้สัก ทำให้มีบรรยากาศที่อบอุ่น เป็นกันเอง สวยงาม สามารถเลือกชิลได้ทั้งโซน Indoor และโซน Outdoor สีโต๊ะเกาอี้เน้นโทนสีขาวน้ำตาล มีกระจกบานใหญ่ทำให้มีแสงธรรมชาติเข้ามา 
27,คริสป์ คาเฟ่,KRISP Cafe ,ร้านอาหารและคาเฟ่,18.8090243,98.9802882,98.9802882,2079696.71,https://www.facebook.com/krispcafe2021,063 525 4245,คาเฟ่ ร้านกาแฟถ่ายรูปสวยๆ ตัวร้านถูกรีโนเวทมาจากบ้านเก่า มีกลิ่นอายความเป็นวินเทจเบาๆ มีพื้นที่กว้างขวาง มีมุมแสดงงานศิลปะในทุกๆ ห้อง มีทั้งโซน Indoor และ Outdoor พร้อมกับมุมไฮไลท์ซึ่งเป็นสระว่ายน้ำที่ไม่มีน้ำ สามารถลงไปถ่ายรูปได้
28,กลิน คาเฟ่,Glin Cafe,ร้านอาหารและคาเฟ่,18.797586,98.9771429,497591.41,2078431.19,https://www.facebook.com/glin.cafe/,09-2558-2255,คาเฟ่ขาวๆ ครีมๆ โทนสี แสงสี และขนมปังของทางร้านก็รสชาติดีต่อใจ อร่อยสุดๆ
29,แดนข้าวมันไก่ สาขาสันทราย,Dan Chicken Rice,ร้านอาหารและคาเฟ่,18.8218028,99.0311178,503278.64,2081110.82,-,0810221128,ร้านข้าวมันไก่เจ้าเด็ด ข้าวมันหอมๆ เม็ดสวยอร่อย ไก่เนื้อแน่นฉ่ำ ติดหนังนิดๆ เสิร์ฟพร้อมกับน้ำจิ้มรสจัดจ้าน และยังเข้ากันดีกับน้ำซุปสุดกลมกล่อม 
30, ข้าวซอยลุงประกิจกาดก้อม,Khao Soi Lung Prakit Kaat Gorm,ร้านอาหารและคาเฟ่,18.7744964,98.9875067,498683.35,2075876.28,-,0832099441,ร้านข้าวซอยสตรีทฟู้ดเจ้าเด็ด ความอร่อยระดับตำนานมานานกว่า 40 ปี สำหรับเมนูเด็ดยอดนิยม คือ ข้าวซอยเนื้อ เป็นข้าวซอยที่น้ำแกงข้นกำลังพอดี เนื้อตุ๋นมาได้นุ่มอร่อย ละลายในปาก เส้นบะหมี่ลวกสุกนุ่ม ไม่เละ เสิร์ฟพร้อมเครื่องเคียง หอมดอง ผักกาดดอง และมะนาว
31,ครัวหลองข้าว,Krua Lawng Khao,ร้านอาหารและคาเฟ่,18.916976,98.9493103,98.9493103,2091641.84,https://www.facebook.com/Lhongkao.Kitchen/,08-3476-3421,ร้านอาหารเหนือ บรรยากาศสบายๆ ได้ใกล้ชิดธรรมชาติ นั่งทานข้าวในอากาศเย็นสบาย โดยทางร้านจะเน้นอาหารพื้นเมืองมากมายหลายเมนู ใช้เครื่องปรุงสดใหม่ เมนูแนะนำ คือ ลาบหมูคั่ว กรอบนุ่มหอมกลิ่นเครื่องเทศ และแกงผักบุ้งใส่ปลาแบบทางเหนือที่มีรสเผ็ดอร่อย
32, สวนทูนอิน,Tune In garden,ร้านอาหารและคาเฟ่,18.8687605,98.8197066,481009.33,2086315.91,https://www.facebook.com/tuneingardenchiangmai/,"0-5387-9251, 087-1852-951",ร้านอาหารบรรยากาศดี ใกล้ชิดธรรมชาติ มีบ่อปลาสวยๆ และเมื่อมาที่นี่ครั้งแรกจะได้ทานเซ็ตเมนู เมื่อกลับมาอีกครั้งจะสามารถเลือกเมนูจากตำราอาหารของเจ้าของร้านได้ เมนูแนะนำ คือ ซี่โครงหมูอบกะหล่ำปลี และหลนแหนม
33,บ้านลันได,BAAN Landai,ร้านอาหารและคาเฟ่,18.7940972,98.9852849,498449.35,2078045.06,https://www.facebook.com/baanlandaifinethaicuisine/,06-5848-4464,ร้านได้เลือกสรรตำรับความอร่อยทั่วไทยมาไว้ที่ร้าน สำหรับจานเด็ดประจำร้าน คือ ซี่โครงหมูอบซอสไวน์แดง รสละมุนหอมกลิ่นสมุนไพร และยังมี ชาดอกไม้ พร้อมค็อกเทลและม็อกเทลหลากหลายสูตรให้เลือกจับคู่กับอาหารจานหลัก
34, แมกโนเลีย คาเฟ่,Magnolia Café,ร้านอาหารและคาเฟ่,18.8005194,98.9949046,499463.12,2078755.56,https://www.facebook.com/PinnFood/,06-1684-8222,ร้านอาหารไทยรสมือแม่ที่เสิร์ฟตำรับไทยคัดสรรจากทั่วทุกภูมิภาค ปรุงและจัดเสิร์ฟมาได้อย่างงดงาม และถึงแม้ที่นี่จะไม่มีเมนูขนมหวาน แต่ลูกค้าทุกคนจะได้รับขนมเปียกปูนสดแสนอร่อยเป็นเมนูปิดท้าย
35,จินเจอร์ฟาร์มคิชเช่น,Ginger Farm Kitchen,ร้านอาหารและคาเฟ่,18.7998595,98.9653631,496350.12,2078683,https://www.facebook.com/gingerfarmkitchen/,0-5208-0928,ร้านอาหารที่ตกแต่งได้อย่างสวยงามสไตล์รัสติก มีต้นไม้ ดอกไม้ มาประดับ ทำให้รู้สึกได้รับบรรยากาศที่อบอุ่น เมนูส่วนใหญ่จะเป็นอาหารเหนือที่อร่อยเด็ด รสเลิศ แถมด้วยวัตถุดิบสดใหม่ ที่ส่วนใหญ่จะมาจากฟาร์มของร้านเอง
36,โกเหน่ง,Patongo Kong Neng Chiangmai,ร้านอาหารและคาเฟ่,18.7899409,98.9994982,499947.1,2077585.15,https://www.facebook.com/%E0%B8%9B%E0%B8%B2%E0%B8%97%E0%B9%88%E0%B8%AD%E0%B8%87%E0%B9%82%E0%B8%81%E0%B9%8B-%E0%B9%82%E0%B8%81%E0%B9%80%E0%B8%AB%E0%B8%99%E0%B9%88%E0%B8%87-217164521708876,09-4637-6333,ร้านปาท่องโก๋ยอดฮิตในเชียงใหม่ เพราะเค้าได้ดัดแปลงจากปาท่องโก๋เดิมๆ ให้เป็นรูปร่างต่างๆ ดูน่ารัก น่ากินขึ้นไปอีก ไม่ว่าจะเป็นจระเข้ ไดโนเสาร์ มังกร ช้าง รวมถึงรสชาติที่กรอบนอก นุ่มใน อร่อยระดับตำนานกว่า 30 ปี
37,ฮ้านถึงเจียงใหม่ ,Han Teung Jiang Mai,ร้านอาหารและคาเฟ่,18.7890017,98.9525904,495003.85,2077481.92,-,09-1076-6100,ร้านอาหารหลังคาทรงจั่วมุงด้วยหญ้าคา อยู่ไม่ไกลจากม.เชียงใหม่ ภายในร้านตกแต่งแบบเรียบง่ายสไตล์รัสติก รสชาติของอาหารทำให้เป็นร้านที่ดึงดูดผู้คนมากมาย ไม่ว่าจะเป็นนักท่องเที่ยว หรือคนในท้องถิ่นเอง แถมด้วยราคาที่เป็นมิตร และการบริการที่น่าประทับใจ ไม่แปลกใจจริงๆ ค่ะ ว่าทำไมใครมาก็ต้องติดใจร้านนี้ค่ะ
38,เฮือนสุนทรี,Huan Soontaree,ร้านอาหารและคาเฟ่,18.830827,98.9922036,499178.65,2082109.02,https://www.facebook.com/huansoontaree,08-3860-8196,ร้านสไตล์ล้านนา และที่นี่เป็นร้านอาหารที่อยู่ติดริมแม่น้ำ แถมด้วยดนตรีสดเพราะๆ ยาวไปทั้งคืน ให้เราได้อิ่มอร่อยกับอาหารมื้อเย็นสไตล์พื้นเมือง 
39, เฮือนม่วนใจ๋,Huen Muan Jai,ร้านอาหารและคาเฟ่,18.7998672,98.9733593,497192.7,2078683.63,https://www.facebook.com/Huen-Muan-Jai-%E0%B9%80%E0%B8%AE%E0%B8%B7%E0%B8%AD%E0%B8%99%E0%B8%A1%E0%B9%88%E0%B8%A7%E0%B8%99%E0%B9%83%E0%B8%88%E0%B9%8B-301752539835951/,09-8261-8029,บ้านแห่งความสุขสไตล์ล้านนา ที่เสิร์ฟอาหารสูตรดั้งเดิมรสชาติเด็ด เมนูเด็ด คือ จอผักกาด เป็นซุปเปรี้ยวใส่กะหล่ำปลีจีนและหมู แกงฮังเลสูตรดั้งเดิม และน้ำพริกหนุ่มรสชาติกลมกล่อมสูตรลับของทางร้าน 
40,ข้าวซอยแม่มณี,Khao Soi Mae Manee,ร้านอาหารและคาเฟ่,18.8244138,98.9648398,496295.55,2081399.8,https://www.facebook.com/khaosoimaemani/,0-5321-8519,ร้านอาหารเหนือดั้งเดิม อร่อยถูกปาก ราคาถูก โดยเฉพาะคนชอบข้าวซอย เพราะร้านมีเส้นให้เลือกหลากหลาย ไม่ว่าจะเป็นวุ้นเส้น มาม่า เส้นเล็ก อร่อยทุกแบบ ได้ทั้งข้าวซอยไก่ เนื้อวัว และเนื้อหมู 
41,มีนา,Meena,ร้านอาหารและคาเฟ่,18.7848281,99.0437651,504612.15,2077019.99,https://www.facebook.com/meena.rice.based/,09-5693-9586,ร้านอาหารทรงไทยล้านนาที่ซ่อนตัวอยู่ในทุ่งนา  เมนูแนะนำ คือ ข้าว 5 สี ทานคู่กับอาหารไทยต่างๆ แต่ละจานถูกตกแต่งอย่างสวยงามด้วยดอกไม้หรือผลไม้สีสันสดใส ส่วนใครที่ไม่ทานเนื้อสัตว์ทางร้านก็มีเมนูมังสวิรัติให้เลือกอย่างหลากหลาย
42,ณ จันตรา,Chantra Khiri Chalet Chiangmai,ร้านอาหารและคาเฟ่,18.7831359,98.8396875,98.8396875,2076839.82,https://www.facebook.com/Chantrakhirichaletchiangmai,05-2010-155,ห้องอาหารของโรงแรมจันตราคีรี ที่มีบรรยากศดี คนรักธรรมชาติต้องชอบกับวิวทิวทัศน์ที่สวยงามของภูเขา รวมถึงรสชาติอาหารก็ถูกปาก เพราะเป็นห้องอาหารที่มีทั้งอาหารไทย และอาหารพื้นเมืองภาคเหนือ 
43,เนื้อวัวรสเยี่ยม,Rote Yiam Beef Noodle,ร้านอาหารและคาเฟ่,18.777916,98.9971085,499695.22,2076254.64,-,0-5327-2422,ร้านก๋วยเตี๋ยวที่คนรักเนื้อต้องชอบ เนื้อตุ๋นเปื่อยๆ กำลังดี พร้อมซดน้ำซุปสุดกลมกล่อมแถมด้วยเมนูข้าวราดแกงกะหรี่ 
44,โรตีป้าเด,Rotee Pa Day,ร้านอาหารและคาเฟ่,18.7695737,98.9629227,496092.31,2075332.05,https://www.facebook.com/%E0%B9%82%E0%B8%A3%E0%B8%95%E0%B8%B5%E0%B8%9B%E0%B9%89%E0%B8%B2%E0%B9%80%E0%B8%94%E0%B8%AA%E0%B8%B2%E0%B8%82%E0%B8%B2%E0%B8%AB%E0%B8%A5%E0%B8%B1%E0%B8%81%E0%B8%97%E0%B9%88%E0%B8%B2%E0%B9%81%E0%B8%9E-Thapae-Rotee-Padae-102385068341402/,0810219496,ร้านโรตีในตำนาน รสชาติไม่ธรรมดา การันตีด้วยการต่อแถวรอซื้อค่อนข้างยาว แต่คุ้มค่ากับการได้ทานโรตีไส้ต่างๆ เช่น กล้วย ชีส ช็อคโกแลต ส้ม นมสด และนมสด ชาร้อนต่างๆ 
45,ครัวอาจารย์สายหยุดแอนด์หมอทราย,Ajarn Saiyud's Kitchen,ร้านอาหารและคาเฟ่,18.8219675,98.9848389,498402.62,2081128.75,https://saiyudkitchenbydoctorsai.wordpress.com/,08-1530-1172,ร้านอาหารไทยสารพัดเมนูจากทุกภาคของไทย โดยเป็นสูตรอาหารของคุณแม่หมอทราย หรืออาจารย์สายหยุด ที่เป็นอดีตครูสอนทำอาหาร ร้านจะดูเรียบง่าย บรรยากาศอบอุ่นเหมือนได้ทานอาหารที่บ้าน แต่ทุกเมนูพิถีพิถันอย่างประณีตสุดๆ  ทำให้ทุกเมนูล้วนเป็นศิลปะการทำอาหารที่ทำให้บรรดานักชิมรู้สึกเหมือนอยู่ในวัง
46,ท่าจีนชมจันทร์,Thajene Chomchan,ร้านอาหารและคาเฟ่,18.8119774,98.9695611,496792.72,2080023.61,https://www.facebook.com/thajenechomchanplus/?__xts__[0]=68.ARBTUXoDGpynEBP41QexK-6HS15kGB27nJBO0epKgzfMAhHB8mspHNGYT7wCzXpjhvP2ezd1pnEHrsq01bKnaYiCHQY7zhyGms2gpFJ5uvChsrSDQ-kDgjRQjBSzQmD0dgZqE_vBHwui8YxHvq3UvTIGbHoY1SllqpieZFfb57BHdO3bLAw_8fnIMvuTG1anE2HSnVcM1c6S4J6ZL-ORfWaPnJkd6oXjouXKNks_k5p44x3yAD1W4FU1kb6Z4-A7XrmkLAMYnpv_V7DHTm6Ratrxo6GeVBNb0fJmP5uZGw7JWt-GloVyuIs,063 525 1719,ร้านอาหารซีฟู้ด อาหารทะเลสดๆ รสชาติเยี่ยม เปี่ยมคุณภาพ การให้บริการของพนักงานก็เป็นเลิศ แถมมีดนตรีสดให้นั่งฟังแบบชิลๆ ระหว่างทานอาหารมื้อพิเศษ
47,เดอะกู้ดวิวบาร์แอนด์เรสเทอรองค์,The Good View Bar & Restaurant,ร้านอาหารและคาเฟ่,18.7904056,99.0014862,500156.6,2077636.6,https://www.facebook.com/goodview.cm/,099 271 0666,ร้านนั่งชิลเชียงใหม่ที่มีพื้นที่นั่งภายในร้าน และนอกร้าน ทีเด็ดของร้านนี้คือวิวริมแม่น้ำปิง และดนตรีสดที่ได้นักร้องกลางคืนมืออาชีพมาร้องทุกวัน มีเมนูอาหารทั้งของกินเล่นและอาหารจานเดียว
48,คำดารา,Comedara Restaurant,ร้านอาหารและคาเฟ่,18.7930324,98.9987695,499870.28,2077927.15,https://www.facebook.com/Comedara/,086 421 7191,ร้านอาหารขวัญใจนักท่องเที่ยวชาวต่างชาติ เป็นบ้านทรงไทยสไตล์โมเดิร์น ที่เน้นเสิร์ฟอาหารเหนือพื้นเมืองลำแต๊ๆ ที่ถูกปากทั้งคนเชียงใหม่และคนต่างถิ่นที่สำคัญ วิวที่นั่งติดริมแม่น้ำปิงก็สวยจนอยากนั่งไปทั้งคืนเลย
49,กิน อยู่ ได้ at เชียงใหม่,Kinyoudai,ร้านอาหารและคาเฟ่,18.7601635,99.0013804,500145.45,2074290.47,https://www.facebook.com/kinyoudaiatchiangmai/,087 423 5226,ร้านอาหารไทยประยุกต์ เมนูอาหารหลากหลายทั้งต้ม ผัด แกง ทอด รสชาติจัดจ้าน มีขนมหวานตามฤดูกาล
50,ชมคาเฟ่,Chom Cafe and Restaurant,ร้านอาหารและคาเฟ่,18.7484954,98.9433265,494026.16,2073000.3,https://www.facebook.com/chomcafeandrestaurant/,063-438-8188,ร้านอาหารสไตล์ฟิวชั่นบรรยากาศดี รายล้อมไปด้วยต้นไม้เขียวขจีมองแล้วสบายตา เหมาะกับการไปพักผ่อนวันหยุด แถมยังมีปลาคาร์ฟตัวใหญ่สีสวย
51, ลามูร์ คาเฟ่ เชียงใหม่,Lamour Cafe,ร้านอาหารและคาเฟ่,18.7763633,98.9470764,494422.35,2076083.64,https://www.facebook.com/LamourCafeChiangmai/,081-818-5707,ลามูร์คาเฟ่หรือคาเฟ่บ้านเหลือง มีทั้งอาหารไทย อาหารยุโรป พร้อมทั้งเครื่องดื่มเก๋ๆ พนักงานบริการดี มาร้านเดียวแต่ครบจบทั้งของคาวของหวาน
52,คั่วไก่นิมมาน,Kuakai Nimman,ร้านอาหารและคาเฟ่,18.7942747,98.9672264,496546.32,2078065,https://www.facebook.com/kuakainimman/,053-218-278 และ 082-180-1177,ร้านคั่วไก่ชื่อดังย่านนิมมานที่โต๊ะไม่เคยว่างการันตีความอร่อยด้วยรางวัล Michelin แต่ถึงแม้จะชื่อร้านคั่วไก่ก็ไม่ได้มีแค่เมนูคั่วไก่ ยังมีเมนูอาหารจานเดียว ยำ ต้ม ซุป ให้เลือกได้ มีโซนให้นั่งทั้งแบบ Indoor และ Outdoor
53,ครัวคนบ้านไกล แม่โจ้ เชียงใหม่,Kon Ban Klai kitchen,ร้านอาหารและคาเฟ่,18.8940288,99.0323945,503411.62,2089102.37,https://www.facebook.com/konbanklaikitchen/,081-870-4049 และ 085-209-4449,ร้านอาหารบรรยากาศเป็นกันเอง อาหารรสชาติดีเข้มข้นจัดจ้าน เมนูแนะนำ คือ เมนูปลาทั้งหลาย เพราะเค้ารับประกันความสดกินไปไม่คาวไม่ว่าจะเป็น ปลาช่อน ปลาทับทิม ปลากระพง ทำโดยเชฟที่มีประสบการณ์มากกว่า 30 ปี 
54,จริณพาย,Charin Pie,ร้านอาหารและคาเฟ่,18.7949181,98.9660185,496419.14,2078136.17,https://www.facebook.com/CharinPie/?__xts__[0]=68.ARBTUXoDGpynEBP41QexK-6HS15kGB27nJBO0epKgzfMAhHB8mspHNGYT7wCzXpjhvP2ezd1pnEHrsq01bKnaYiCHQY7zhyGms2gpFJ5uvChsrSDQ-kDgjRQjBSzQmD0dgZqE_vBHwui8YxHvq3UvTIGbHoY1SllqpieZFfb57BHdO3bLAw_8fnIMvuTG1anE2HSnVcM1c6S4J6ZL-ORfWaPnJkd6oXjouXKNks_k5p44x3yAD1W4FU1kb6Z4-A7XrmkLAMYnpv_V7DHTm6Ratrxo6GeVBNb0fJmP5uZGw7JWt-GloVyuIs,053-221-863 และ 098-955-8149,ร้านพายชื่อดังย่านนิมมาน มีพายและขนมให้เลือกหลากหลาย พายมะพร้าว  เป็นเมนู signature  เครื่องดื่มก็มีเด็ดสุดๆไม่แพ้กัน 
55,สวนผัก โอ้กะจู๋,Ohkajhu Organic Farm,ร้านอาหารและคาเฟ่,18.8404143,99.0214402,502258.7,2083169.9,https://www.facebook.com/ohkajhuorganic/?__xts__[0]=68.ARBTUXoDGpynEBP41QexK-6HS15kGB27nJBO0epKgzfMAhHB8mspHNGYT7wCzXpjhvP2ezd1pnEHrsq01bKnaYiCHQY7zhyGms2gpFJ5uvChsrSDQ-kDgjRQjBSzQmD0dgZqE_vBHwui8YxHvq3UvTIGbHoY1SllqpieZFfb57BHdO3bLAw_8fnIMvuTG1anE2HSnVcM1c6S4J6ZL-ORfWaPnJkd6oXjouXKNks_k5p44x3yAD1W4FU1kb6Z4-A7XrmkLAMYnpv_V7DHTm6Ratrxo6GeVBNb0fJmP5uZGw7JWt-GloVyuIs,053-200-888,สวนผักออร์แกนิกที่ปลูกขึ้นด้วยความรักและแรงบันดาลใจ และได้กลายมาเป็นเมนูอาหารสำหรับคนรักสุขภาพ รับรองว่าวัตถุดิบต่างๆที่นำมาทำอาหารสะอาด ปลอดภัย มีคุณภาพ เลือกมาให้อย่างดีเหมือนกับทำให้คนในครอบครัว
56,ภัตตาคารตูลู่,TULOU Restaurant ,ร้านอาหารและคาเฟ่,18.7747497,98.9802484,497918.32,2075904.45,https://www.facebook.com/tulouchiangmai/?__xts__[0]=68.ARBTUXoDGpynEBP41QexK-6HS15kGB27nJBO0epKgzfMAhHB8mspHNGYT7wCzXpjhvP2ezd1pnEHrsq01bKnaYiCHQY7zhyGms2gpFJ5uvChsrSDQ-kDgjRQjBSzQmD0dgZqE_vBHwui8YxHvq3UvTIGbHoY1SllqpieZFfb57BHdO3bLAw_8fnIMvuTG1anE2HSnVcM1c6S4J6ZL-ORfWaPnJkd6oXjouXKNks_k5p44x3yAD1W4FU1kb6Z4-A7XrmkLAMYnpv_V7DHTm6Ratrxo6GeVBNb0fJmP5uZGw7JWt-GloVyuIs,052-080-744,ภัตตาคารอาหารจีนที่ทุกเมนูอาหารล้วนผ่านการรังสรรค์สูตรจากสุดยอดเชฟผู้มากประสบการณ์ เหมาะกับการไปกินแบบครอบครัวหรือหมู่คณะ ทางร้านมีโปรโมชั่นหลากหลายให้ได้เลือก ไม่ว่าจะเป็นโปรโมชั่นวันเกิด และวันสำคัญต่างๆ
57,เฌยคาเฟ่,Choei Cafe & Bistro,ร้านอาหารและคาเฟ่,18.7791349,98.9974403,499730.21,2076389.52,https://www.facebook.com/choeicafe/,"053-819079, 098-159-5900 และ 098-149-0950",ร้านอาหารฮาลาลย่านช้างคลาน รสชาติดีราคาสมเหตุสมผล เพราะใช้วัตถุดิบคุณภาพดี และยังมีอาหารคลีนด้วย
58,หมูทอดกาดหลวง by ดำรงค์,Moo Tod Kadluang by Damrong,ร้านอาหารและคาเฟ่,18.8180484,98.9754731,497415.74,2080695.24,https://www.facebook.com/mootodkadluangbydamrong/,093-536-3661,ร้านหมูทอดรสชาติดีร้านดังแถวแน่นที่กาดหลวงและรสชาติต้นตำหรับ นั่งทานได้ มีเมนูมากกว่าที่ขายในกาดหลวง นอกจากจะขายอาหารและร้านนี้ก็ยังขายของฝากด้วย 
59,ร็อคมีเบอร์เกอร์แอนด์บาร์,Rock Me Burger&bar,ร้านอาหารและคาเฟ่,18.7958243,98.9683058,496660.16,2078236.37,https://www.facebook.com/Rockmeburger/,063-895-2456,ร้านเบอเกอร์ที่เป็นสวรรค์ของคนรักเบอเกอร์ที่แท้ เพราะว่าใช้วัตถุดิบที่ดี ทางร้านได้คิดค้นเมนูใหม่ๆให้ทันสมัยและแปลกใหม่อยู่เสมอ ราคาก็จับต้องได้
60,บุฟเฟ่ต์ขนมจีนวัดเกต หน้ารร.ปรินส์,Kanom Jene buffet,ร้านอาหารและคาเฟ่,18.7939777,99.0035484,500373.88,2078031.83,https://www.facebook.com/kjwatket/, 064-626-8789,ร้านขนมจีนบุฟเฟ่ต์ตักได้ไม่อั้น มีน้ำขนมจีนให้เลือกกินได้ถึง 6 น้ำ ของกินเล่นก็เพียบ ราคาก็ย่อมเยาว์ 
